{"type": "FeatureCollection", "features": [ {"type": "Feature", "properties": {"norad_id": 32322, "name": "FENGYUN 1C DEB", "group": "fengyun-1c-debris", "lat": -72.30415074436685, "lon": 32.482070232565455, "alt_km": 1447.395622478145, "timestamp": "2025-12-26T06:43:29.797895+00:00", "meta": {"OBJECT_NAME": "FENGYUN 1C DEB", "OBJECT_ID": "1999-025CXP", "EPOCH": "2025-12-21T10:17:00.184704", "MEAN_MOTION": 13.34155768, "ECCENTRICITY": 0.04195743, "INCLINATION": 98.3703, "RA_OF_ASC_NODE": 235.9789, "ARG_OF_PERICENTER": 75.736, "MEAN_ANOMALY": 288.998, "EPHEMERIS_TYPE": 0, "CLASSIFICATION_TYPE": "U", "NORAD_CAT_ID": 32322, "ELEMENT_SET_NO": 999, "REV_AT_EPOCH": 60495, "BSTAR": 0.0012702386, "MEAN_MOTION_DOT": 1.01e-05, "MEAN_MOTION_DDOT": 0}, "tle": {"line1": "1 32322U 99025CXP 25355.42847436  .00001010  00000+0  12702-2 0  9990", "line2": "2 32322  98.3703 235.9789 0419574  75.7360 288.9980 13.34155768604956"}}, "geometry": {"type": "Point", "coordinates": [32.482070232565455, -72.30415074436685]}}, {"type": "Feature", "properties": {"norad_id": 32323, "name": "FENGYUN 1C DEB", "group": "fengyun-1c-debris", "lat": -74.96204368055915, "lon": -71.58726119354621, "alt_km": 901.1606562413399, "timestamp": "2025-12-26T06:43:29.797905+00:00", "meta": {"OBJECT_NAME": "FENGYUN 1C DEB", "OBJECT_ID": "1999-025CXQ", "EPOCH": "2025-12-19T15:19:13.533312", "MEAN_MOTION": 13.96612746, "ECCENTRICITY": 0.015623, "INCLINATION": 98.5704, "RA_OF_ASC_NODE": 136.3682, "ARG_OF_PERICENTER": 190.9743, "MEAN_ANOMALY": 168.7999, "EPHEMERIS_TYPE": 0, "CLASSIFICATION_TYPE": "U", "NORAD_CAT_ID": 32323, "ELEMENT_SET_NO": 999, "REV_AT_EPOCH": 60366, "BSTAR": 0.0022503, "MEAN_MOTION_DOT": 3.415e-05, "MEAN_MOTION_DDOT": 0}, "tle": {"line1": "1 32323U 99025CXQ 25353.63835108  .00003415  00000+0  22503-2 0  9996", "line2": "2 32323  98.5704 136.3682 0156230 190.9743 168.7999 13.96612746603662"}}, "geometry": {"type": "Point", "coordinates": [-71.58726119354621, -74.96204368055915]}}, {"type": "Feature", "properties": {"norad_id": 32324, "name": "FENGYUN 1C DEB", "group": "fengyun-1c-debris", "lat": -31.909387915744947, "lon": 108.81820126432352, "alt_km": 834.13743571944, "timestamp": "2025-12-26T06:43:29.797915+00:00", "meta": {"OBJECT_NAME": "FENGYUN 1C DEB", "OBJECT_ID": "1999-025CXR", "EPOCH": "2025-12-24T17:23:16.128672", "MEAN_MOTION": 14.09166254, "ECCENTRICITY": 0.00496208, "INCLINATION": 99.5324, "RA_OF_ASC_NODE": 101.1678, "ARG_OF_PERICENTER": 350.6597, "MEAN_ANOMALY": 9.3643, "EPHEMERIS_TYPE": 0, "CLASSIFICATION_TYPE": "U", "NORAD_CAT_ID": 32324, "ELEMENT_SET_NO": 999, "REV_AT_EPOCH": 64167, "BSTAR": 0.00050694088, "MEAN_MOTION_DOT": 8.41e-06, "MEAN_MOTION_DDOT": 0}, "tle": {"line1": "1 32324U 99025CXR 25358.72449223  .00000841  00000+0  50694-3 0  9994", "line2": "2 32324  99.5324 101.1678 0049620 350.6597   9.3643 14.09166254641675"}}, "geometry": {"type": "Point", "coordinates": [108.81820126432352, -31.909387915744947]}}, {"type": "Feature", "properties": {"norad_id": 32326, "name": "FENGYUN 1C DEB", "group": "fengyun-1c-debris", "lat": 70.10134100848204, "lon": -96.27864264940904, "alt_km": 748.2045582153487, "timestamp": "2025-12-26T06:43:29.797925+00:00", "meta": {"OBJECT_NAME": "FENGYUN 1C DEB", "OBJECT_ID": "1999-025CXT", "EPOCH": "2025-12-25T00:34:20.838720", "MEAN_MOTION": 13.69298824, "ECCENTRICITY": 0.0386861, "INCLINATION": 98.4894, "RA_OF_ASC_NODE": 286.9798, "ARG_OF_PERICENTER": 106.5572, "MEAN_ANOMALY": 257.8432, "EPHEMERIS_TYPE": 0, "CLASSIFICATION_TYPE": "U", "NORAD_CAT_ID": 32326, "ELEMENT_SET_NO": 999, "REV_AT_EPOCH": 63350, "BSTAR": 0.00054460155, "MEAN_MOTION_DOT": 7.67e-06, "MEAN_MOTION_DDOT": 0}, "tle": {"line1": "1 32326U 99025CXT 25359.02385230  .00000767  00000+0  54460-3 0  9999", "line2": "2 32326  98.4894 286.9798 0386861 106.5572 257.8432 13.69298824633507"}}, "geometry": {"type": "Point", "coordinates": [-96.27864264940904, 70.10134100848204]}}, {"type": "Feature", "properties": {"norad_id": 32332, "name": "FENGYUN 1C DEB", "group": "fengyun-1c-debris", "lat": 79.72935511318933, "lon": -8.334445873992287, "alt_km": 1100.115385595208, "timestamp": "2025-12-26T06:43:29.797935+00:00", "meta": {"OBJECT_NAME": "FENGYUN 1C DEB", "OBJECT_ID": "1999-025CXZ", "EPOCH": "2025-12-15T21:05:55.809024", "MEAN_MOTION": 13.97153731, "ECCENTRICITY": 0.02851681, "INCLINATION": 99.133, "RA_OF_ASC_NODE": 43.9123, "ARG_OF_PERICENTER": 304.1737, "MEAN_ANOMALY": 53.2688, "EPHEMERIS_TYPE": 0, "CLASSIFICATION_TYPE": "U", "NORAD_CAT_ID": 32332, "ELEMENT_SET_NO": 999, "REV_AT_EPOCH": 93080, "BSTAR": 0.0011409516, "MEAN_MOTION_DOT": 2.204e-05, "MEAN_MOTION_DDOT": 0}, "tle": {"line1": "1 32332U 99025CXZ 25349.87911816  .00002204  00000+0  11410-2 0  9998", "line2": "2 32332  99.1330  43.9123 0285168 304.1737  53.2688 13.97153731930809"}}, "geometry": {"type": "Point", "coordinates": [-8.334445873992287, 79.72935511318933]}}, {"type": "Feature", "properties": {"norad_id": 32334, "name": "FENGYUN 1C DEB", "group": "fengyun-1c-debris", "lat": 44.46234161587232, "lon": -115.91888561370567, "alt_km": 899.5382347484938, "timestamp": "2025-12-26T06:43:29.797945+00:00", "meta": {"OBJECT_NAME": "FENGYUN 1C DEB", "OBJECT_ID": "1999-025CYB", "EPOCH": "2025-12-24T14:40:26.396832", "MEAN_MOTION": 14.01652473, "ECCENTRICITY": 0.00671571, "INCLINATION": 99.2504, "RA_OF_ASC_NODE": 53.1864, "ARG_OF_PERICENTER": 247.9551, "MEAN_ANOMALY": 111.4472, "EPHEMERIS_TYPE": 0, "CLASSIFICATION_TYPE": "U", "NORAD_CAT_ID": 32334, "ELEMENT_SET_NO": 999, "REV_AT_EPOCH": 94106, "BSTAR": 0.00027411253, "MEAN_MOTION_DOT": 3.77e-06, "MEAN_MOTION_DDOT": 0}, "tle": {"line1": "1 32334U 99025CYB 25358.61141663  .00000377  00000+0  27411-3 0  9995", "line2": "2 32334  99.2504  53.1864 0067157 247.9551 111.4472 14.01652473941065"}}, "geometry": {"type": "Point", "coordinates": [-115.91888561370567, 44.46234161587232]}}, {"type": "Feature", "properties": {"norad_id": 32340, "name": "FENGYUN 1C DEB", "group": "fengyun-1c-debris", "lat": 7.292316194151637, "lon": 6.385055312138901, "alt_km": 657.7299231481065, "timestamp": "2025-12-26T06:43:29.797955+00:00", "meta": {"OBJECT_NAME": "FENGYUN 1C DEB", "OBJECT_ID": "1999-025CYH", "EPOCH": "2025-12-23T07:03:11.292480", "MEAN_MOTION": 14.74893451, "ECCENTRICITY": 0.00335712, "INCLINATION": 98.9803, "RA_OF_ASC_NODE": 4.235, "ARG_OF_PERICENTER": 260.0415, "MEAN_ANOMALY": 99.7002, "EPHEMERIS_TYPE": 0, "CLASSIFICATION_TYPE": "U", "NORAD_CAT_ID": 32340, "ELEMENT_SET_NO": 999, "REV_AT_EPOCH": 97352, "BSTAR": 0.0022824537, "MEAN_MOTION_DOT": 0.00015424, "MEAN_MOTION_DDOT": 0}, "tle": {"line1": "1 32340U 99025CYH 25357.29388070  .00015424  00000+0  22825-2 0  9992", "line2": "2 32340  98.9803   4.2350 0033571 260.0415  99.7002 14.74893451973521"}}, "geometry": {"type": "Point", "coordinates": [6.385055312138901, 7.292316194151637]}}, {"type": "Feature", "properties": {"norad_id": 32342, "name": "FENGYUN 1C DEB", "group": "fengyun-1c-debris", "lat": -16.62868321287205, "lon": 11.07972326339759, "alt_km": 848.3663667263581, "timestamp": "2025-12-26T06:43:29.797965+00:00", "meta": {"OBJECT_NAME": "FENGYUN 1C DEB", "OBJECT_ID": "1999-025CYK", "EPOCH": "2025-12-25T22:36:58.625280", "MEAN_MOTION": 14.13404022, "ECCENTRICITY": 0.00068786, "INCLINATION": 98.6699, "RA_OF_ASC_NODE": 8.1405, "ARG_OF_PERICENTER": 311.4329, "MEAN_ANOMALY": 113.6552, "EPHEMERIS_TYPE": 0, "CLASSIFICATION_TYPE": "U", "NORAD_CAT_ID": 32342, "ELEMENT_SET_NO": 999, "REV_AT_EPOCH": 93904, "BSTAR": 9.819406e-05, "MEAN_MOTION_DOT": 1.42e-06, "MEAN_MOTION_DDOT": 0}, "tle": {"line1": "1 32342U 99025CYK 25359.94234520  .00000142  00000+0  98194-4 0  9993", "line2": "2 32342  98.6699   8.1405 0006878 311.4329 113.6552 14.13404022939042"}}, "geometry": {"type": "Point", "coordinates": [11.07972326339759, -16.62868321287205]}}, {"type": "Feature", "properties": {"norad_id": 32343, "name": "FENGYUN 1C DEB", "group": "fengyun-1c-debris", "lat": 64.36511949125865, "lon": -174.91242655704872, "alt_km": 720.3048026169035, "timestamp": "2025-12-26T06:43:29.797975+00:00", "meta": {"OBJECT_NAME": "FENGYUN 1C DEB", "OBJECT_ID": "1999-025CYL", "EPOCH": "2025-12-13T05:18:56.833632", "MEAN_MOTION": 14.19848796, "ECCENTRICITY": 0.01521973, "INCLINATION": 98.6084, "RA_OF_ASC_NODE": 333.9812, "ARG_OF_PERICENTER": 126.2805, "MEAN_ANOMALY": 235.2541, "EPHEMERIS_TYPE": 0, "CLASSIFICATION_TYPE": "U", "NORAD_CAT_ID": 32343, "ELEMENT_SET_NO": 999, "REV_AT_EPOCH": 64720, "BSTAR": 0.00041342117, "MEAN_MOTION_DOT": 9.43e-06, "MEAN_MOTION_DDOT": 0}, "tle": {"line1": "1 32343U 99025CYL 25347.22149113  .00000943  00000+0  41342-3 0  9996", "line2": "2 32343  98.6084 333.9812 0152197 126.2805 235.2541 14.19848796647208"}}, "geometry": {"type": "Point", "coordinates": [-174.91242655704872, 64.36511949125865]}}, {"type": "Feature", "properties": {"norad_id": 32350, "name": "FENGYUN 1C DEB", "group": "fengyun-1c-debris", "lat": -0.6214295692071344, "lon": -135.30552151965358, "alt_km": 670.2285087722248, "timestamp": "2025-12-26T06:43:29.798005+00:00", "meta": {"OBJECT_NAME": "FENGYUN 1C DEB", "OBJECT_ID": "1999-025CYT", "EPOCH": "2025-12-23T20:00:36.959040", "MEAN_MOTION": 14.52655293, "ECCENTRICITY": 0.0266548, "INCLINATION": 98.2271, "RA_OF_ASC_NODE": 42.3822, "ARG_OF_PERICENTER": 264.2753, "MEAN_ANOMALY": 92.7999, "EPHEMERIS_TYPE": 0, "CLASSIFICATION_TYPE": "U", "NORAD_CAT_ID": 32350, "ELEMENT_SET_NO": 999, "REV_AT_EPOCH": 97688, "BSTAR": 0.00070823, "MEAN_MOTION_DOT": 4.579e-05, "MEAN_MOTION_DDOT": 0}, "tle": {"line1": "1 32350U 99025CYT 25357.83376110  .00004579  00000+0  70823-3 0  9996", "line2": "2 32350  98.2271  42.3822 0266548 264.2753  92.7999 14.52655293976880"}}, "geometry": {"type": "Point", "coordinates": [-135.30552151965358, -0.6214295692071344]}}]}